GALAXY 7 (G-7)          
1 22205U 92072A   26116.32892029  .00000076  00000+0  00000+0 0  9993
2 22205  14.4963   3.6759 0007441  36.2581 153.8277  0.99702997116363
EKRAN 20                
1 22210U 92074A   26117.18532139  .00000059  00000+0  00000+0 0  9990
2 22210  13.7190 344.6763 0003066 219.2584 130.2852  1.00294236 46850
GORIZONT 27             
1 22245U 92082A   26116.85228992  .00000011  00000+0  00000+0 0  9997
2 22245  13.7471 344.3619 0012491  24.2275 162.2335  1.00200923126603
COSMOS 2224             
1 22269U 92088A   26116.41779170 -.00000222  00000+0  00000+0 0  9995
2 22269  13.6636 348.3410 0006284 278.0004  74.0091  1.00246395121568
SL-12 R/B(2)            
1 22272U 92088D   26116.90808588 -.00000313  00000+0  00000+0 0  9990
2 22272  13.7648 348.8034 0007869 162.6900 343.8503  1.00066693 46771
TDRS 6                  
1 22314U 93003B   26117.09055975 -.00000306  00000+0  00000+0 0  9992
2 22314  14.1825 357.4398 0005997 179.0480  25.4426  1.00273429121895
RADUGA 29               
1 22557U 93013A   26116.93147476 -.00000346  00000+0  00000+0 0  9996
2 22557  13.8683 345.5030 0003019 184.1046 120.8133  1.00370668121169
HGS-4 (GALAXY 4)        
1 22694U 93039A   26116.99016543 -.00000121  00000+0  00000+0 0  9993
2 22694  14.5713 355.5312 0017162  38.4645 252.5526  1.00264563118483
HISPASAT 1B             
1 22723U 93048A   26116.85800993  .00000089  00000+0  00000+0 0  9993
2 22723  13.6838  13.4768 0008468 350.6406 197.9134  0.99721089119321
INSAT-2B                
1 22724U 93048B   26116.96572659 -.00000248  00000+0  00000+0 0  9999
2 22724  14.4366   2.9828 0015031 225.6725 310.0275  0.99986521120067
UFO 2 (USA 95)          
1 22787U 93056A   26116.90111061  .00000115  00000+0  00000+0 0  9999
2 22787  11.8778   3.8358 0008532 355.3201 208.9051  1.00278760118033
RADUGA 30               
1 22836U 93062A   26116.98574207 -.00000179  00000+0  00000+0 0  9995
2 22836  14.0395 347.5272 0005310 327.7958 335.6249  1.00271342 45488
SL-12 R/B(2)            
1 22839U 93062D   26116.84994991 -.00000063  00000+0  00000+0 0  9991
2 22839  13.9770 347.2569 0008796  85.8071  84.6102  1.00287051118340
SL-12 R/B(2)            
1 22883U 93069D   26116.75140362  .00000048  00000+0  00000+0 0  9994
2 22883  13.8857 347.0771 0004307  42.5863 315.2480  1.00491082118545
GORIZONT 29             
1 22907U 93072A   26117.13358397 -.00000257  00000+0  00000+0 0  9990
2 22907  14.0119 347.7125 0011779   0.6954   8.3511  1.00115199118663
SOLIDARIDAD 1           
1 22911U 93073A   26117.19874381 -.00000123  00000+0  00000+0 0  9990
2 22911  14.3658   2.7699 0006970 269.7892 268.7303  1.00279996117351
TELSTAR 401             
1 22927U 93077A   26117.14226544 -.00000095  00000+0  00000+0 0  9996
2 22927  14.4665 351.2557 0006535 140.6212  24.3067  1.00284014118061
