[{"OBJECT_NAME":"GALAXY 7 (G-7)","OBJECT_ID":"1992-072A","EPOCH":"2026-04-26T07:53:38.713056","MEAN_MOTION":0.99702997,"ECCENTRICITY":0.00074417,"INCLINATION":14.4963,"RA_OF_ASC_NODE":3.6759,"ARG_OF_PERICENTER":36.2581,"MEAN_ANOMALY":153.8277,"EPHEMERIS_TYPE":0,"CLASSIFICATION_TYPE":"U","NORAD_CAT_ID":22205,"ELEMENT_SET_NO":999,"REV_AT_EPOCH":11636,"BSTAR":0,"MEAN_MOTION_DOT":7.6e-7,"MEAN_MOTION_DDOT":0},{"OBJECT_NAME":"EKRAN 20","OBJECT_ID":"1992-074A","EPOCH":"2026-04-27T04:26:51.768096","MEAN_MOTION":1.00294236,"ECCENTRICITY":0.0003066,"INCLINATION":13.719,"RA_OF_ASC_NODE":344.6763,"ARG_OF_PERICENTER":219.2584,"MEAN_ANOMALY":130.2852,"EPHEMERIS_TYPE":0,"CLASSIFICATION_TYPE":"U","NORAD_CAT_ID":22210,"ELEMENT_SET_NO":999,"REV_AT_EPOCH":4685,"BSTAR":0,"MEAN_MOTION_DOT":5.9e-7,"MEAN_MOTION_DDOT":0},{"OBJECT_NAME":"GORIZONT 27","OBJECT_ID":"1992-082A","EPOCH":"2026-04-26T20:27:17.849088","MEAN_MOTION":1.00200923,"ECCENTRICITY":0.00124914,"INCLINATION":13.7471,"RA_OF_ASC_NODE":344.3619,"ARG_OF_PERICENTER":24.2275,"MEAN_ANOMALY":162.2335,"EPHEMERIS_TYPE":0,"CLASSIFICATION_TYPE":"U","NORAD_CAT_ID":22245,"ELEMENT_SET_NO":999,"REV_AT_EPOCH":12660,"BSTAR":0,"MEAN_MOTION_DOT":1.1e-7,"MEAN_MOTION_DDOT":0},{"OBJECT_NAME":"COSMOS 2224","OBJECT_ID":"1992-088A","EPOCH":"2026-04-26T10:01:37.202880","MEAN_MOTION":1.00246395,"ECCENTRICITY":0.00062848,"INCLINATION":13.6636,"RA_OF_ASC_NODE":348.341,"ARG_OF_PERICENTER":278.0004,"MEAN_ANOMALY":74.0091,"EPHEMERIS_TYPE":0,"CLASSIFICATION_TYPE":"U","NORAD_CAT_ID":22269,"ELEMENT_SET_NO":999,"REV_AT_EPOCH":12156,"BSTAR":0,"MEAN_MOTION_DOT":-2.22e-6,"MEAN_MOTION_DDOT":0},{"OBJECT_NAME":"SL-12 R/B(2)","OBJECT_ID":"1992-088D","EPOCH":"2026-04-26T21:47:38.620032","MEAN_MOTION":1.00066693,"ECCENTRICITY":0.0007869,"INCLINATION":13.7648,"RA_OF_ASC_NODE":348.8034,"ARG_OF_PERICENTER":162.69,"MEAN_ANOMALY":343.8503,"EPHEMERIS_TYPE":0,"CLASSIFICATION_TYPE":"U","NORAD_CAT_ID":22272,"ELEMENT_SET_NO":999,"REV_AT_EPOCH":4677,"BSTAR":0,"MEAN_MOTION_DOT":-3.13e-6,"MEAN_MOTION_DDOT":0},{"OBJECT_NAME":"TDRS 6","OBJECT_ID":"1993-003B","EPOCH":"2026-04-27T02:10:24.362400","MEAN_MOTION":1.00273429,"ECCENTRICITY":0.0005997,"INCLINATION":14.1825,"RA_OF_ASC_NODE":357.4398,"ARG_OF_PERICENTER":179.048,"MEAN_ANOMALY":25.4426,"EPHEMERIS_TYPE":0,"CLASSIFICATION_TYPE":"U","NORAD_CAT_ID":22314,"ELEMENT_SET_NO":999,"REV_AT_EPOCH":12189,"BSTAR":0,"MEAN_MOTION_DOT":-3.06e-6,"MEAN_MOTION_DDOT":0},{"OBJECT_NAME":"RADUGA 29","OBJECT_ID":"1993-013A","EPOCH":"2026-04-26T22:21:19.419264","MEAN_MOTION":1.00370668,"ECCENTRICITY":0.0003019,"INCLINATION":13.8683,"RA_OF_ASC_NODE":345.503,"ARG_OF_PERICENTER":184.1046,"MEAN_ANOMALY":120.8133,"EPHEMERIS_TYPE":0,"CLASSIFICATION_TYPE":"U","NORAD_CAT_ID":22557,"ELEMENT_SET_NO":999,"REV_AT_EPOCH":12116,"BSTAR":0,"MEAN_MOTION_DOT":-3.46e-6,"MEAN_MOTION_DDOT":0},{"OBJECT_NAME":"HGS-4 (GALAXY 4)","OBJECT_ID":"1993-039A","EPOCH":"2026-04-26T23:45:50.293152","MEAN_MOTION":1.00264563,"ECCENTRICITY":0.0017162,"INCLINATION":14.5713,"RA_OF_ASC_NODE":355.5312,"ARG_OF_PERICENTER":38.4645,"MEAN_ANOMALY":252.5526,"EPHEMERIS_TYPE":0,"CLASSIFICATION_TYPE":"U","NORAD_CAT_ID":22694,"ELEMENT_SET_NO":999,"REV_AT_EPOCH":11848,"BSTAR":0,"MEAN_MOTION_DOT":-1.21e-6,"MEAN_MOTION_DDOT":0},{"OBJECT_NAME":"HISPASAT 1B","OBJECT_ID":"1993-048A","EPOCH":"2026-04-26T20:35:32.057952","MEAN_MOTION":0.99721089,"ECCENTRICITY":0.0008468,"INCLINATION":13.6838,"RA_OF_ASC_NODE":13.4768,"ARG_OF_PERICENTER":350.6406,"MEAN_ANOMALY":197.9134,"EPHEMERIS_TYPE":0,"CLASSIFICATION_TYPE":"U","NORAD_CAT_ID":22723,"ELEMENT_SET_NO":999,"REV_AT_EPOCH":11932,"BSTAR":0,"MEAN_MOTION_DOT":8.9e-7,"MEAN_MOTION_DDOT":0},{"OBJECT_NAME":"INSAT-2B","OBJECT_ID":"1993-048B","EPOCH":"2026-04-26T23:10:38.777376","MEAN_MOTION":0.99986521,"ECCENTRICITY":0.0015031,"INCLINATION":14.4366,"RA_OF_ASC_NODE":2.9828,"ARG_OF_PERICENTER":225.6725,"MEAN_ANOMALY":310.0275,"EPHEMERIS_TYPE":0,"CLASSIFICATION_TYPE":"U","NORAD_CAT_ID":22724,"ELEMENT_SET_NO":999,"REV_AT_EPOCH":12006,"BSTAR":0,"MEAN_MOTION_DOT":-2.48e-6,"MEAN_MOTION_DDOT":0},{"OBJECT_NAME":"UFO 2 (USA 95)","OBJECT_ID":"1993-056A","EPOCH":"2026-04-26T21:37:35.956704","MEAN_MOTION":1.0027876,"ECCENTRICITY":0.00085323,"INCLINATION":11.8778,"RA_OF_ASC_NODE":3.8358,"ARG_OF_PERICENTER":355.3201,"MEAN_ANOMALY":208.9051,"EPHEMERIS_TYPE":0,"CLASSIFICATION_TYPE":"U","NORAD_CAT_ID":22787,"ELEMENT_SET_NO":999,"REV_AT_EPOCH":11803,"BSTAR":0,"MEAN_MOTION_DOT":1.15e-6,"MEAN_MOTION_DDOT":0},{"OBJECT_NAME":"RADUGA 30","OBJECT_ID":"1993-062A","EPOCH":"2026-04-26T23:39:28.114848","MEAN_MOTION":1.00271342,"ECCENTRICITY":0.000531,"INCLINATION":14.0395,"RA_OF_ASC_NODE":347.5272,"ARG_OF_PERICENTER":327.7958,"MEAN_ANOMALY":335.6249,"EPHEMERIS_TYPE":0,"CLASSIFICATION_TYPE":"U","NORAD_CAT_ID":22836,"ELEMENT_SET_NO":999,"REV_AT_EPOCH":4548,"BSTAR":0,"MEAN_MOTION_DOT":-1.79e-6,"MEAN_MOTION_DDOT":0},{"OBJECT_NAME":"SL-12 R/B(2)","OBJECT_ID":"1993-062D","EPOCH":"2026-04-26T20:23:55.672224","MEAN_MOTION":1.00287051,"ECCENTRICITY":0.00087969,"INCLINATION":13.977,"RA_OF_ASC_NODE":347.2569,"ARG_OF_PERICENTER":85.8071,"MEAN_ANOMALY":84.6102,"EPHEMERIS_TYPE":0,"CLASSIFICATION_TYPE":"U","NORAD_CAT_ID":22839,"ELEMENT_SET_NO":999,"REV_AT_EPOCH":11834,"BSTAR":0,"MEAN_MOTION_DOT":-6.3e-7,"MEAN_MOTION_DDOT":0},{"OBJECT_NAME":"SL-12 R/B(2)","OBJECT_ID":"1993-069D","EPOCH":"2026-04-26T18:02:01.272768","MEAN_MOTION":1.00491082,"ECCENTRICITY":0.00043076,"INCLINATION":13.8857,"RA_OF_ASC_NODE":347.0771,"ARG_OF_PERICENTER":42.5863,"MEAN_ANOMALY":315.248,"EPHEMERIS_TYPE":0,"CLASSIFICATION_TYPE":"U","NORAD_CAT_ID":22883,"ELEMENT_SET_NO":999,"REV_AT_EPOCH":11854,"BSTAR":0,"MEAN_MOTION_DOT":4.8e-7,"MEAN_MOTION_DDOT":0},{"OBJECT_NAME":"GORIZONT 29","OBJECT_ID":"1993-072A","EPOCH":"2026-04-27T03:12:21.655008","MEAN_MOTION":1.00115199,"ECCENTRICITY":0.0011779,"INCLINATION":14.0119,"RA_OF_ASC_NODE":347.7125,"ARG_OF_PERICENTER":0.6954,"MEAN_ANOMALY":8.3511,"EPHEMERIS_TYPE":0,"CLASSIFICATION_TYPE":"U","NORAD_CAT_ID":22907,"ELEMENT_SET_NO":999,"REV_AT_EPOCH":11866,"BSTAR":0,"MEAN_MOTION_DOT":-2.57e-6,"MEAN_MOTION_DDOT":0},{"OBJECT_NAME":"SOLIDARIDAD 1","OBJECT_ID":"1993-073A","EPOCH":"2026-04-27T04:46:11.465184","MEAN_MOTION":1.00279996,"ECCENTRICITY":0.000697,"INCLINATION":14.3658,"RA_OF_ASC_NODE":2.7699,"ARG_OF_PERICENTER":269.7892,"MEAN_ANOMALY":268.7303,"EPHEMERIS_TYPE":0,"CLASSIFICATION_TYPE":"U","NORAD_CAT_ID":22911,"ELEMENT_SET_NO":999,"REV_AT_EPOCH":11735,"BSTAR":0,"MEAN_MOTION_DOT":-1.23e-6,"MEAN_MOTION_DDOT":0},{"OBJECT_NAME":"TELSTAR 401","OBJECT_ID":"1993-077A","EPOCH":"2026-04-27T03:24:51.734016","MEAN_MOTION":1.00284014,"ECCENTRICITY":0.0006535,"INCLINATION":14.4665,"RA_OF_ASC_NODE":351.2557,"ARG_OF_PERICENTER":140.6212,"MEAN_ANOMALY":24.3067,"EPHEMERIS_TYPE":0,"CLASSIFICATION_TYPE":"U","NORAD_CAT_ID":22927,"ELEMENT_SET_NO":999,"REV_AT_EPOCH":11806,"BSTAR":0,"MEAN_MOTION_DOT":-9.5e-7,"MEAN_MOTION_DDOT":0}]
